UNKNOWN                 
1 87517U 76126    22267.52517032  .00001465  00000+0  49736-3 0  9991
2 87517  65.8270 180.3110 0721482 148.7850  21.7784 13.46874731433844
UNKNOWN                 
1 87541U 70025    22263.63754628  .00000214  00000+0  50600-3 0  9995
2 87541  99.8467 152.7491 0058530 227.6356 162.0193 13.34973024424672
UNKNOWN                 
1 87553U 76126    22268.35087667  .00001369  00000+0  49541-3 0  9996
2 87553  65.6722 291.9176 0731610  26.8230 336.8756 13.42740103432970
UNKNOWN                 
1 87557U 73086    22269.41687404  .00001871  00000+0  51216-2 0  9994
2 87557 101.7848 326.2071 0065053  77.5011 283.3364 13.14590717410130
UNKNOWN                 
1 87561U 76077    22269.46615586 -.00000067  00000+0 -16663-3 0  9995
2 87561 102.1572 336.6417 0174847 276.0112  96.1759 12.32128652397937
UNKNOWN                 
1 87565U 99025    22265.92917559  .00001001  00000+0  61039-3 0  9993
2 87565  99.9177 137.7264 0181986 104.7780 257.3623 14.00762980451404
UNKNOWN                 
1 87569U 99025    22269.12448272 -.00000044  00000+0  16021-4 0  9993
2 87569 101.8452  32.0370 0055869  43.0152 132.2560 12.68481125409652
UNKNOWN                 
1 87587U 93036    22268.28429791  .00000139  00000+0  53531-4 0  9991
2 87587  74.0229 112.6227 0019852  72.8231 287.5094 14.38965495464812
UNKNOWN                 
1 87590U 99025    22266.88359447  .00000339  00000+0  22506-3 0  9992
2 87590  98.9319 308.0301 0027053 357.7009 175.4121 14.07882562989665
UNKNOWN                 
1 87616U 76067    22266.37189891  .00000589  00000+0  21320-2 0  9999
2 87616  66.0367 298.1801 0650027 278.8456  88.3526 12.45107972389681
UNKNOWN                 
1 87624U 99025    22266.48351518  .00001457  00000+0  32512-3 0  9997
2 87624  98.7472 130.3734 0127119 269.8138  88.8490 14.53676245408591
UNKNOWN                 
1 87642U          22254.02075377  .00043887  00000+0  18783-2 0  9991
2 87642  62.2234 158.6063 0113626 331.4010  28.0886 15.16802555473091
UNKNOWN                 
1 87650U          22266.57849265  .00006484  00000+0  23961-2 0  9994
2 87650 100.2628 183.0677 0059702  31.0874 329.3815 14.31830783 18126
UNKNOWN                 
1 87656U          22266.72747418  .00015754  00000+0  31044-2 0  9995
2 87656  99.1394  66.2268 0016563 279.1813  80.7512 14.62522801828812
UNKNOWN                 
1 87664U 75052    22259.88315309 -.00000040  00000+0 -71175-5 0  9998
2 87664  99.7249 235.4049 0212877 158.1443 233.6344 13.06282780535457
UNKNOWN                 
1 87672U 93016    22267.00860233  .00001486  00000+0  71798-3 0  9993
2 87672  70.8647   7.0537 0066191 258.3176 101.0515 14.19099150457188
UNKNOWN                 
1 87681U          22265.96382466  .00000869  00000+0  10119-2 0  9997
2 87681  66.7405 357.0514 0168978 220.4511 138.3893 13.67476255440738
UNKNOWN                 
1 87690U 76126    22268.30185390  .00002330  00000+0  38411-3 0  9998
2 87690  65.7981 115.2668 0680634 275.9812  76.4142 13.79572119444212
UNKNOWN                 
1 87706U          22268.59773493  .00001817  00000+0  44120-3 0  9995
2 87706  98.5661  35.9563 0133761 263.3508 109.7172 14.48915520407663
UNKNOWN                 
1 87725U 81053    22265.53522561  .00003802  00000+0  12116-2 0  9997
2 87725  82.8989 184.6355 0026148 226.6707 133.2305 14.39428082462323
UNKNOWN                 
1 87727U 92093    22264.40429371  .00055668  00000+0  65099-2 0  9990
2 87727  70.9772  59.7173 0016159  38.7495 321.4820 14.84679291469397
UNKNOWN                 
1 87730U          22264.57248682  .00000063  00000+0  50556-4 0  9996
2 87730  82.9482  25.6340 0030856  48.8290 311.5519 13.74213653423507
UNKNOWN                 
1 87737U 99025    22269.35848645  .00000016  00000+0  62921-4 0  9991
2 87737  99.5453 140.5166 0133750 359.8306   0.2775 13.72046003442934
UNKNOWN                 
1 87764U 76126    22269.19667552  .00002332  00000+0  49293-3 0  9995
2 87764  65.6723  76.8308 0488029 301.1762 240.5082 14.06520598452547
UNKNOWN                 
1 87771U 75052    22266.27126274  .00000041  00000+0  21076-3 0  9991
2 87771 100.6932  62.1590 0120567 148.4927 212.3479 13.19086809379958
UNKNOWN                 
1 87782U 73086    22266.39521760  .00001308  00000+0  50395-2 0  9992
2 87782 102.3933 335.1724 0062382  96.7300 264.0896 12.91727334415617
UNKNOWN                 
1 87817U 68097    22263.57703396  .00065392  00000+0  20143-2 0  9992
2 87817  62.7541 235.4066 0143593  71.5608 290.1049 15.23664301509332
UNKNOWN                 
1 87843U 70025    22268.84627205  .00001206  00000+0  30676-2 0  9990
2 87843  99.6768 110.0932 0241784 223.6383 134.5384 13.10772482410059
UNKNOWN                 
1 87845U          22265.72258383  .00000707  00000+0  14340-2 0  9994
2 87845  98.8447  81.9522 0585774  74.4445 292.0511 12.84945815413831
UNKNOWN                 
1 87878U          22269.37234317  .00001255  00000+0  50326-3 0  9990
2 87878  99.2166 302.1234 0042866  80.3831 280.2189 14.29708706443080
UNKNOWN                 
1 87883U 99025    22266.47222094  .00000591  00000+0  22797-3 0  9991
2 87883  99.2044 166.3779 0298030  81.6320 281.8518 14.12461531406118
UNKNOWN                 
1 87884U 99025    22266.17116008  .00000637  00000+0  37959-3 0  9993
2 87884  98.6197  42.9590 0157564 139.5179 221.7837 14.04553954453124
UNKNOWN                 
1 87898U 99025    22260.58348349  .00003599  00000+0  12576-2 0  9999
2 87898  98.9068 130.8082 0130362 116.2655 245.1990 14.31183933458569
UNKNOWN                 
1 87934U          22264.76143508  .00000081  00000+0  70869-4 0  9993
2 87934  82.9322  90.0718 0031990  71.1512 302.0180 13.72833385442673
UNKNOWN                 
1 87942U          22266.19414531  .00008068  00000+0  78393-3 0  9990
2 87942  99.0909 251.8987 0132074 284.8233 135.4106 14.86552914470742
UNKNOWN                 
1 87972U 99025    22265.59562663  .00006889  00000+0  22283-2 0  9996
2 87972  98.8012 195.2670 0153325 227.7192 131.0909 14.32873980407179
UNKNOWN                 
1 87991U 77065    22266.18836463 -.00001034  00000+0 -22479-2 0  9991
2 87991  28.6243 139.8355 0915025 327.1586  27.5146 12.30031267377770
UNKNOWN                 
1 87998U 99025    22264.33688577  .00000516  00000+0  32510-3 0  9994
2 87998  98.6863 302.1056 0027042 353.3590   6.7218 14.08326866382857
UNKNOWN                 
1 89003U          22265.97580170  .00000173  00000+0  70216-4 0  9994
2 89003  74.0490  11.5375 0015927 356.3282   3.7751 14.34816461462699
UNKNOWN                 
1 89005U          22266.71042947  .00002189  00000+0  58963-3 0  9997
2 89005  97.9565 169.5023 0220776  15.8379 344.9570 14.35442824364820
UNKNOWN                 
1 89029U          22264.86296695  .00001539  00000+0  21146-3 0  9999
2 89029  98.1941 124.4673 0029688 197.9899 162.0263 14.79578058476162
UNKNOWN                 
1 89048U          22269.47591362  .00038972  00000+0  62435-2 0  9997
2 89048  99.0472 176.7234 0019064 345.8536  14.2131 14.71457271467352
UNKNOWN                 
1 89067U          22266.40161462  .00016994  00000+0  51460-3 0  9999
2 89067  80.9842 150.7974 0552284 325.8606  30.8175 14.50504902411484
UNKNOWN                 
1 89074U          22268.90230814  .00002139  00000+0  24913-2 0  9990
2 89074 100.2950 307.3927 0054297 110.1105  67.1242 13.69361738428221
UNKNOWN                 
1 89101U          22267.15317663 -.00000104  00000+0 -18318-3 0  9990
2 89101 100.3138 232.9428 0146632 213.5939 145.5804 13.03664107401644
UNKNOWN                 
1 89123U          22265.57184777  .00003113  00000+0  14622-2 0  9990
2 89123  99.0664   9.4230 0061160  17.5833 342.7440 14.19839242359899
UNKNOWN                 
1 89127U          22245.55434244  .00019975  00000+0  15281-2 0  9992
2 89127  74.0623 183.6982 0035306 183.9628 176.1287 15.01359406314174
UNKNOWN                 
1 89132U          22269.39486280  .00005816  00000+0  53403-2 0  9990
2 89132  63.4412 321.6624 3054905 320.3485  20.9086  8.74059435221779
UNKNOWN                 
1 89135U          22268.27132779  .00003559  00000+0  16780-2 0  9999
2 89135  71.0620 273.8735 0138397 237.7714 120.9933 14.15591488455514
UNKNOWN                 
1 89142U          22269.27127880 -.00007318  00000+0 -11083-1 0  9994
2 89142  64.7785 333.0043 2945296  76.8394 314.0901  8.80657521206832
UNKNOWN                 
1 89146U          22269.06496156  .00001769  00000+0  44025-3 0  9996
2 89146  98.1882 200.4735 0119487  85.3191 276.1638 14.48669591458197
UNKNOWN                 
1 89161U          22269.33900843  .00004550  00000+0  61293-3 0  9993
2 89161  97.7288 292.0657 0129421  21.4870 339.1702 14.73949822373355
UNKNOWN                 
1 89171U          22264.50334613  .00125336  00000+0  45679-2 0  9999
2 89171  98.9971 161.9090 0030854  96.0327 264.4424 15.27204245378628
UNKNOWN                 
1 89172U 81053    22267.12505446  .00002899  00000+0  69733-3 0  9998
2 89172  82.0800 211.4833 0408970 192.9382 166.1053 14.12615257434187
UNKNOWN                 
1 89177U          22269.66187240  .00000056  00000+0  44146-4 0  9990
2 89177  82.9202  58.6503 0032911 163.6375 196.5851 13.73440718901925
UNKNOWN                 
1 89183U          22269.04835906  .00000488  00000+0  48248-3 0  9993
2 89183  99.2050 193.0937 0134744  34.4438 326.5357 13.79432249445038
UNKNOWN                 
1 89184U          22269.27442693  .00003279  00000+0  10284-2 0  9995
2 89184  98.4731 104.9743 0018431 138.8956 221.3625 14.41139057321393
UNKNOWN                 
1 89195U          22266.41857811  .00001998  00000+0  86436-3 0  9991
2 89195  98.7704 333.7521 0031751  62.0952 298.3436 14.25221604359665
UNKNOWN                 
1 89206U          22267.82265704  .00003684  00000+0  15175-2 0  9999
2 89206  98.7027 292.6020 0027787   4.9469 355.1981 14.27273500318065
UNKNOWN                 
1 89213U          22266.52341101  .00000335  00000+0  24680-3 0  9991
2 89213  98.8743 179.7947 0234004 102.9051 259.8355 13.89331985289218
